{
  "type": "FeatureCollection",
  "features": [
    {
      "type": "Feature",
      "properties": {
        "norad_id": 57400,
        "name": "TIANMU-1 08",
        "group": "weather",
        "lat": -70.19615835194553,
        "lon": -167.88449246931205,
        "alt_km": 493.97944810202534,
        "timestamp": "2025-12-09T04:51:47.151837+00:00",
        "meta_object_name": "TIANMU-1 08",
        "meta_object_id": "2023-101B",
        "meta_epoch": "2025-12-08T19:54:27.206784",
        "meta_mean_motion": 15.27970126,
        "meta_eccentricity": 0.0007562,
        "meta_inclination": 97.2865,
        "meta_ra_of_asc_node": 32.5643,
        "meta_arg_of_pericenter": 94.7004,
        "meta_mean_anomaly": 265.51,
        "meta_ephemeris_type": 0,
        "meta_classification_type": "U",
        "meta_norad_cat_id": 57400,
        "meta_element_set_no": 999,
        "meta_rev_at_epoch": 13255,
        "meta_bstar": 0.00042171,
        "meta_mean_motion_dot": 0.00011451,
        "meta_mean_motion_ddot": 0,
        "tle_line1": "1 57400U 23101B   25342.82948156  .00011451  00000+0  42171-3 0  9991",
        "tle_line2": "2 57400  97.2865  32.5643 0007562  94.7004 265.5100 15.27970126132557"
      },
      "geometry": {
        "type": "Point",
        "coordinates": [
          -167.88449246931205,
          -70.19615835194553
        ]
      }
    },
    {
      "type": "Feature",
      "properties": {
        "norad_id": 57401,
        "name": "TIANMU-1 09",
        "group": "weather",
        "lat": -36.07907050040169,
        "lon": 37.79093316077688,
        "alt_km": 491.1356316941674,
        "timestamp": "2025-12-09T04:51:47.151847+00:00",
        "meta_object_name": "TIANMU-1 09",
        "meta_object_id": "2023-101C",
        "meta_epoch": "2025-12-08T19:35:31.520256",
        "meta_mean_motion": 15.27996216,
        "meta_eccentricity": 0.0006824,
        "meta_inclination": 97.2822,
        "meta_ra_of_asc_node": 32.067,
        "meta_arg_of_pericenter": 94.2757,
        "meta_mean_anomaly": 265.9263,
        "meta_ephemeris_type": 0,
        "meta_classification_type": "U",
        "meta_norad_cat_id": 57401,
        "meta_element_set_no": 999,
        "meta_rev_at_epoch": 13255,
        "meta_bstar": 0.00042321,
        "meta_mean_motion_dot": 0.000115,
        "meta_mean_motion_ddot": 0,
        "tle_line1": "1 57401U 23101C   25342.81633704  .00011500  00000+0  42321-3 0  9993",
        "tle_line2": "2 57401  97.2822  32.0670 0006824  94.2757 265.9263 15.27996216132558"
      },
      "geometry": {
        "type": "Point",
        "coordinates": [
          37.79093316077688,
          -36.07907050040169
        ]
      }
    },
    {
      "type": "Feature",
      "properties": {
        "norad_id": 57402,
        "name": "TIANMU-1 10",
        "group": "weather",
        "lat": 43.61664505902098,
        "lon": -139.70307763845003,
        "alt_km": 473.90001826076514,
        "timestamp": "2025-12-09T04:51:47.151857+00:00",
        "meta_object_name": "TIANMU-1 10",
        "meta_object_id": "2023-101D",
        "meta_epoch": "2025-12-08T20:24:45.811872",
        "meta_mean_motion": 15.27987929,
        "meta_eccentricity": 0.0008558,
        "meta_inclination": 97.2902,
        "meta_ra_of_asc_node": 32.946,
        "meta_arg_of_pericenter": 94.4677,
        "meta_mean_anomaly": 265.754,
        "meta_ephemeris_type": 0,
        "meta_classification_type": "U",
        "meta_norad_cat_id": 57402,
        "meta_element_set_no": 999,
        "meta_rev_at_epoch": 13255,
        "meta_bstar": 0.00042443,
        "meta_mean_motion_dot": 0.00011535,
        "meta_mean_motion_ddot": 0,
        "tle_line1": "1 57402U 23101D   25342.85053023  .00011535  00000+0  42443-3 0  9991",
        "tle_line2": "2 57402  97.2902  32.9460 0008558  94.4677 265.7540 15.27987929132550"
      },
      "geometry": {
        "type": "Point",
        "coordinates": [
          -139.70307763845003,
          43.61664505902098
        ]
      }
    },
    {
      "type": "Feature",
      "properties": {
        "norad_id": 57490,
        "name": "FENGYUN 3F",
        "group": "weather",
        "lat": -29.624162030077795,
        "lon": 56.553195872253696,
        "alt_km": 831.8471068672679,
        "timestamp": "2025-12-09T04:51:47.151868+00:00",
        "meta_object_name": "FENGYUN 3F",
        "meta_object_id": "2023-111A",
        "meta_epoch": "2025-12-08T20:32:52.814112",
        "meta_mean_motion": 14.19892186,
        "meta_eccentricity": 6.61e-05,
        "meta_inclination": 98.7088,
        "meta_ra_of_asc_node": 51.2122,
        "meta_arg_of_pericenter": 94.5606,
        "meta_mean_anomaly": 265.5646,
        "meta_ephemeris_type": 0,
        "meta_classification_type": "U",
        "meta_norad_cat_id": 57490,
        "meta_element_set_no": 999,
        "meta_rev_at_epoch": 12185,
        "meta_bstar": 0.00011202,
        "meta_mean_motion_dot": 1.94e-06,
        "meta_mean_motion_ddot": 0,
        "tle_line1": "1 57490U 23111A   25342.85616683  .00000194  00000+0  11202-3 0  9994",
        "tle_line2": "2 57490  98.7088  51.2122 0000661  94.5606 265.5646 14.19892186121853"
      },
      "geometry": {
        "type": "Point",
        "coordinates": [
          56.553195872253696,
          -29.624162030077795
        ]
      }
    },
    {
      "type": "Feature",
      "properties": {
        "norad_id": 58584,
        "name": "ARKTIKA-M 2",
        "group": "weather",
        "lat": 51.4974528651349,
        "lon": -44.14409013216441,
        "alt_km": 27932.347636415758,
        "timestamp": "2025-12-09T04:51:47.151880+00:00",
        "meta_object_name": "ARKTIKA-M 2",
        "meta_object_id": "2023-198A",
        "meta_epoch": "2025-12-07T20:14:37.201632",
        "meta_mean_motion": 2.00604572,
        "meta_eccentricity": 0.68645726,
        "meta_inclination": 63.2245,
        "meta_ra_of_asc_node": 175.4245,
        "meta_arg_of_pericenter": 268.1228,
        "meta_mean_anomaly": 18.8285,
        "meta_ephemeris_type": 0,
        "meta_classification_type": "U",
        "meta_norad_cat_id": 58584,
        "meta_element_set_no": 999,
        "meta_rev_at_epoch": 1448,
        "meta_bstar": 0,
        "meta_mean_motion_dot": 1.69e-06,
        "meta_mean_motion_ddot": 0,
        "tle_line1": "1 58584U 23198A   25341.84348613  .00000169  00000+0  00000+0 0  9999",
        "tle_line2": "2 58584  63.2245 175.4245 6864572 268.1228  18.8285  2.00604572 14484"
      },
      "geometry": {
        "type": "Point",
        "coordinates": [
          -44.14409013216441,
          51.4974528651349
        ]
      }
    },
    {
      "type": "Feature",
      "properties": {
        "norad_id": 58645,
        "name": "TIANMU-1 11",
        "group": "weather",
        "lat": -1.0788674439929278,
        "lon": 3.0274963006007143,
        "alt_km": 490.7266006483642,
        "timestamp": "2025-12-09T04:51:47.151892+00:00",
        "meta_object_name": "TIANMU-1 11",
        "meta_object_id": "2023-205A",
        "meta_epoch": "2025-12-08T20:59:29.501664",
        "meta_mean_motion": 15.24528045,
        "meta_eccentricity": 0.0008252,
        "meta_inclination": 97.3606,
        "meta_ra_of_asc_node": 2.5658,
        "meta_arg_of_pericenter": 326.0405,
        "meta_mean_anomaly": 34.0304,
        "meta_ephemeris_type": 0,
        "meta_classification_type": "U",
        "meta_norad_cat_id": 58645,
        "meta_element_set_no": 999,
        "meta_rev_at_epoch": 10850,
        "meta_bstar": 0.00040588,
        "meta_mean_motion_dot": 9.929e-05,
        "meta_mean_motion_ddot": 0,
        "tle_line1": "1 58645U 23205A   25342.87464701  .00009929  00000+0  40588-3 0  9999",
        "tle_line2": "2 58645  97.3606   2.5658 0008252 326.0405  34.0304 15.24528045108508"
      },
      "geometry": {
        "type": "Point",
        "coordinates": [
          3.0274963006007143,
          -1.0788674439929278
        ]
      }
    },
    {
      "type": "Feature",
      "properties": {
        "norad_id": 58646,
        "name": "TIANMU-1 12",
        "group": "weather",
        "lat": -32.43992017745331,
        "lon": 177.98251816831487,
        "alt_km": 499.11386631048026,
        "timestamp": "2025-12-09T04:51:47.151905+00:00",
        "meta_object_name": "TIANMU-1 12",
        "meta_object_id": "2023-205B",
        "meta_epoch": "2025-12-08T16:54:17.464320",
        "meta_mean_motion": 15.2440473,
        "meta_eccentricity": 0.0006112,
        "meta_inclination": 97.3594,
        "meta_ra_of_asc_node": 2.2053,
        "meta_arg_of_pericenter": 309.5629,
        "meta_mean_anomaly": 50.5068,
        "meta_ephemeris_type": 0,
        "meta_classification_type": "U",
        "meta_norad_cat_id": 58646,
        "meta_element_set_no": 999,
        "meta_rev_at_epoch": 10846,
        "meta_bstar": 0.00036097,
        "meta_mean_motion_dot": 8.785e-05,
        "meta_mean_motion_ddot": 0,
        "tle_line1": "1 58646U 23205B   25342.70436880  .00008785  00000+0  36097-3 0  9998",
        "tle_line2": "2 58646  97.3594   2.2053 0006112 309.5629  50.5068 15.24404730108467"
      },
      "geometry": {
        "type": "Point",
        "coordinates": [
          177.98251816831487,
          -32.43992017745331
        ]
      }
    }
  ]
}